{"type": "FeatureCollection", "features": [ {"type": "Feature", "properties": {"norad_id": 35459, "name": "COSMOS 2251 DEB", "group": "cosmos-2251-debris", "lat": 5.150910926342169, "lon": -160.44763275448267, "alt_km": 778.2116204253161, "timestamp": "2025-12-06T22:38:43.125248+00:00", "meta": {"OBJECT_NAME": "COSMOS 2251 DEB", "OBJECT_ID": "1993-036ALD", "EPOCH": "2025-12-05T21:33:57.544416", "MEAN_MOTION": 14.37446258, "ECCENTRICITY": 0.00165225, "INCLINATION": 73.8704, "RA_OF_ASC_NODE": 199.9991, "ARG_OF_PERICENTER": 150.1634, "MEAN_ANOMALY": 210.0464, "EPHEMERIS_TYPE": 0, "CLASSIFICATION_TYPE": "U", "NORAD_CAT_ID": 35459, "ELEMENT_SET_NO": 999, "REV_AT_EPOCH": 58263, "BSTAR": 0.00040904083, "MEAN_MOTION_DOT": 1.198e-05, "MEAN_MOTION_DDOT": 0}, "tle": {"line1": "1 35459U 93036ALD 25339.89858269  .00001198  00000+0  40904-3 0  9992", "line2": "2 35459  73.8704 199.9991 0016522 150.1634 210.0464 14.37446258582635"}}, "geometry": {"type": "Point", "coordinates": [-160.44763275448267, 5.150910926342169]}}, {"type": "Feature", "properties": {"norad_id": 35462, "name": "COSMOS 2251 DEB", "group": "cosmos-2251-debris", "lat": -55.8760941748931, "lon": 124.20190273531254, "alt_km": 785.6181029641384, "timestamp": "2025-12-06T22:38:43.125258+00:00", "meta": {"OBJECT_NAME": "COSMOS 2251 DEB", "OBJECT_ID": "1993-036ALG", "EPOCH": "2025-12-01T03:45:45.448128", "MEAN_MOTION": 14.29124029, "ECCENTRICITY": 0.00870444, "INCLINATION": 74.036, "RA_OF_ASC_NODE": 289.718, "ARG_OF_PERICENTER": 327.319, "MEAN_ANOMALY": 32.2589, "EPHEMERIS_TYPE": 0, "CLASSIFICATION_TYPE": "U", "NORAD_CAT_ID": 35462, "ELEMENT_SET_NO": 999, "REV_AT_EPOCH": 66215, "BSTAR": 0.0017949723, "MEAN_MOTION_DOT": 4.718e-05, "MEAN_MOTION_DDOT": 0}, "tle": {"line1": "1 35462U 93036ALG 25335.15677602  .00004718  00000+0  17950-2 0  9996", "line2": "2 35462  74.0360 289.7180 0087044 327.3190  32.2589 14.29124029662158"}}, "geometry": {"type": "Point", "coordinates": [124.20190273531254, -55.8760941748931]}}, {"type": "Feature", "properties": {"norad_id": 35465, "name": "COSMOS 2251 DEB", "group": "cosmos-2251-debris", "lat": -13.953142784757787, "lon": -156.24761039450263, "alt_km": 707.2245815779797, "timestamp": "2025-12-06T22:38:43.125268+00:00", "meta": {"OBJECT_NAME": "COSMOS 2251 DEB", "OBJECT_ID": "1993-036ALK", "EPOCH": "2025-11-29T22:48:34.232544", "MEAN_MOTION": 14.44263019, "ECCENTRICITY": 0.00634289, "INCLINATION": 73.9997, "RA_OF_ASC_NODE": 220.8763, "ARG_OF_PERICENTER": 24.0529, "MEAN_ANOMALY": 336.3567, "EPHEMERIS_TYPE": 0, "CLASSIFICATION_TYPE": "U", "NORAD_CAT_ID": 35465, "ELEMENT_SET_NO": 999, "REV_AT_EPOCH": 87057, "BSTAR": 0.00049692277, "MEAN_MOTION_DOT": 1.723e-05, "MEAN_MOTION_DDOT": 0}, "tle": {"line1": "1 35465U 93036ALK 25333.95039621  .00001723  00000+0  49692-3 0  9990", "line2": "2 35465  73.9997 220.8763 0063428  24.0529 336.3567 14.44263019870576"}}, "geometry": {"type": "Point", "coordinates": [-156.24761039450263, -13.953142784757787]}}, {"type": "Feature", "properties": {"norad_id": 35469, "name": "COSMOS 2251 DEB", "group": "cosmos-2251-debris", "lat": 61.89180978837762, "lon": 67.21582782934318, "alt_km": 751.0326512199763, "timestamp": "2025-12-06T22:38:43.125278+00:00", "meta": {"OBJECT_NAME": "COSMOS 2251 DEB", "OBJECT_ID": "1993-036ALP", "EPOCH": "2025-12-05T21:29:38.924160", "MEAN_MOTION": 14.49809382, "ECCENTRICITY": 0.00772528, "INCLINATION": 74.0178, "RA_OF_ASC_NODE": 36.7347, "ARG_OF_PERICENTER": 193.7739, "MEAN_ANOMALY": 166.1315, "EPHEMERIS_TYPE": 0, "CLASSIFICATION_TYPE": "U", "NORAD_CAT_ID": 35469, "ELEMENT_SET_NO": 999, "REV_AT_EPOCH": 88012, "BSTAR": 0.00021879134, "MEAN_MOTION_DOT": 8.47e-06, "MEAN_MOTION_DDOT": 0}, "tle": {"line1": "1 35469U 93036ALP 25339.89558940  .00000847  00000+0  21879-3 0  9996", "line2": "2 35469  74.0178  36.7347 0077252 193.7739 166.1315 14.49809382880128"}}, "geometry": {"type": "Point", "coordinates": [67.21582782934318, 61.89180978837762]}}, {"type": "Feature", "properties": {"norad_id": 35475, "name": "COSMOS 2251 DEB", "group": "cosmos-2251-debris", "lat": -45.04952900581934, "lon": 13.545452263630818, "alt_km": 655.1679770978735, "timestamp": "2025-12-06T22:38:43.125287+00:00", "meta": {"OBJECT_NAME": "COSMOS 2251 DEB", "OBJECT_ID": "1993-036ALV", "EPOCH": "2025-12-06T06:54:29.249856", "MEAN_MOTION": 14.69529196, "ECCENTRICITY": 0.00211042, "INCLINATION": 74.0213, "RA_OF_ASC_NODE": 178.1362, "ARG_OF_PERICENTER": 251.4716, "MEAN_ANOMALY": 108.4161, "EPHEMERIS_TYPE": 0, "CLASSIFICATION_TYPE": "U", "NORAD_CAT_ID": 35475, "ELEMENT_SET_NO": 999, "REV_AT_EPOCH": 65522, "BSTAR": 0.0029769511, "MEAN_MOTION_DOT": 0.00017739, "MEAN_MOTION_DDOT": 0}, "tle": {"line1": "1 35475U 93036ALV 25340.28783854  .00017739  00000+0  29770-2 0  9997", "line2": "2 35475  74.0213 178.1362 0021104 251.4716 108.4161 14.69529196655228"}}, "geometry": {"type": "Point", "coordinates": [13.545452263630818, -45.04952900581934]}}, {"type": "Feature", "properties": {"norad_id": 35476, "name": "COSMOS 2251 DEB", "group": "cosmos-2251-debris", "lat": -48.10055223020779, "lon": 53.61565323871823, "alt_km": 653.8380239453945, "timestamp": "2025-12-06T22:38:43.125297+00:00", "meta": {"OBJECT_NAME": "COSMOS 2251 DEB", "OBJECT_ID": "1993-036ALW", "EPOCH": "2025-12-06T13:10:44.340384", "MEAN_MOTION": 14.75466817, "ECCENTRICITY": 0.00173611, "INCLINATION": 73.9786, "RA_OF_ASC_NODE": 73.0677, "ARG_OF_PERICENTER": 58.1179, "MEAN_ANOMALY": 317.1673, "EPHEMERIS_TYPE": 0, "CLASSIFICATION_TYPE": "U", "NORAD_CAT_ID": 35476, "ELEMENT_SET_NO": 999, "REV_AT_EPOCH": 87796, "BSTAR": 0.0031373625, "MEAN_MOTION_DOT": 0.00021426, "MEAN_MOTION_DDOT": 0}, "tle": {"line1": "1 35476U 93036ALW 25340.54912431  .00021426  00000+0  31374-2 0  9993", "line2": "2 35476  73.9786  73.0677 0017361  58.1179 317.1673 14.75466817877960"}}, "geometry": {"type": "Point", "coordinates": [53.61565323871823, -48.10055223020779]}}, {"type": "Feature", "properties": {"norad_id": 35580, "name": "COSMOS 2251 DEB", "group": "cosmos-2251-debris", "lat": 19.456197664261865, "lon": 2.723773608155717, "alt_km": 779.5312472309461, "timestamp": "2025-12-06T22:38:43.125307+00:00", "meta": {"OBJECT_NAME": "COSMOS 2251 DEB", "OBJECT_ID": "1993-036ALX", "EPOCH": "2025-12-05T07:41:34.884960", "MEAN_MOTION": 13.83808546, "ECCENTRICITY": 0.02819486, "INCLINATION": 73.9023, "RA_OF_ASC_NODE": 191.3374, "ARG_OF_PERICENTER": 197.9771, "MEAN_ANOMALY": 161.1227, "EPHEMERIS_TYPE": 0, "CLASSIFICATION_TYPE": "U", "NORAD_CAT_ID": 35580, "ELEMENT_SET_NO": 999, "REV_AT_EPOCH": 62154, "BSTAR": 0.0027537888, "MEAN_MOTION_DOT": 4.125e-05, "MEAN_MOTION_DDOT": 0}, "tle": {"line1": "1 35580U 93036ALX 25339.32054265  .00004125  00000+0  27538-2 0  9999", "line2": "2 35580  73.9023 191.3374 0281948 197.9771 161.1227 13.83808546621542"}}, "geometry": {"type": "Point", "coordinates": [2.723773608155717, 19.456197664261865]}}, {"type": "Feature", "properties": {"norad_id": 35583, "name": "COSMOS 2251 DEB", "group": "cosmos-2251-debris", "lat": 73.90775894823638, "lon": -48.13272210348966, "alt_km": 1306.8055498408085, "timestamp": "2025-12-06T22:38:43.125317+00:00", "meta": {"OBJECT_NAME": "COSMOS 2251 DEB", "OBJECT_ID": "1993-036AMA", "EPOCH": "2025-12-06T09:46:22.855872", "MEAN_MOTION": 13.55320522, "ECCENTRICITY": 0.03857217, "INCLINATION": 73.9174, "RA_OF_ASC_NODE": 222.2787, "ARG_OF_PERICENTER": 247.7895, "MEAN_ANOMALY": 108.1877, "EPHEMERIS_TYPE": 0, "CLASSIFICATION_TYPE": "U", "NORAD_CAT_ID": 35583, "ELEMENT_SET_NO": 999, "REV_AT_EPOCH": 82326, "BSTAR": 0.00085653022, "MEAN_MOTION_DOT": 9.31e-06, "MEAN_MOTION_DDOT": 0}, "tle": {"line1": "1 35583U 93036AMA 25340.40720898  .00000931  00000+0  85653-3 0  9999", "line2": "2 35583  73.9174 222.2787 0385721 247.7895 108.1877 13.55320522823266"}}, "geometry": {"type": "Point", "coordinates": [-48.13272210348966, 73.90775894823638]}}, {"type": "Feature", "properties": {"norad_id": 35585, "name": "COSMOS 2251 DEB", "group": "cosmos-2251-debris", "lat": -4.793800364223488, "lon": -3.289163174632489, "alt_km": 951.8397204848388, "timestamp": "2025-12-06T22:38:43.125328+00:00", "meta": {"OBJECT_NAME": "COSMOS 2251 DEB", "OBJECT_ID": "1993-036AMC", "EPOCH": "2025-12-04T07:54:11.347200", "MEAN_MOTION": 13.75209322, "ECCENTRICITY": 0.0310609, "INCLINATION": 73.9717, "RA_OF_ASC_NODE": 2.4547, "ARG_OF_PERICENTER": 276.3473, "MEAN_ANOMALY": 97.5406, "EPHEMERIS_TYPE": 0, "CLASSIFICATION_TYPE": "U", "NORAD_CAT_ID": 35585, "ELEMENT_SET_NO": 999, "REV_AT_EPOCH": 63948, "BSTAR": 0.0020064, "MEAN_MOTION_DOT": 2.707e-05, "MEAN_MOTION_DDOT": 0}, "tle": {"line1": "1 35585U 93036AMC 25338.32929800  .00002707  00000+0  20064-2 0  9990", "line2": "2 35585  73.9717   2.4547 0310609 276.3473  97.5406 13.75209322639480"}}, "geometry": {"type": "Point", "coordinates": [-3.289163174632489, -4.793800364223488]}}, {"type": "Feature", "properties": {"norad_id": 35586, "name": "COSMOS 2251 DEB", "group": "cosmos-2251-debris", "lat": -50.18075216906768, "lon": -68.33431044925477, "alt_km": 1206.409120933602, "timestamp": "2025-12-06T22:38:43.125338+00:00", "meta": {"OBJECT_NAME": "COSMOS 2251 DEB", "OBJECT_ID": "1993-036AMD", "EPOCH": "2025-12-02T16:49:03.133344", "MEAN_MOTION": 13.52074918, "ECCENTRICITY": 0.04051153, "INCLINATION": 74.0205, "RA_OF_ASC_NODE": 318.5607, "ARG_OF_PERICENTER": 196.0051, "MEAN_ANOMALY": 342.734, "EPHEMERIS_TYPE": 0, "CLASSIFICATION_TYPE": "U", "NORAD_CAT_ID": 35586, "ELEMENT_SET_NO": 999, "REV_AT_EPOCH": 60246, "BSTAR": 0.00045411914, "MEAN_MOTION_DOT": 4.79e-06, "MEAN_MOTION_DDOT": 0}, "tle": {"line1": "1 35586U 93036AMD 25336.70073071  .00000479  00000+0  45412-3 0  9990", "line2": "2 35586  74.0205 318.5607 0405115 196.0051 342.7340 13.52074918602466"}}, "geometry": {"type": "Point", "coordinates": [-68.33431044925477, -50.18075216906768]}}]}